start=new Date('2023-01-14T00:00:00.000Z').valueOf();
sats=[{"RCS_SIZE":"LARGE","CENTER_NAME":"EARTH","TIME_SYSTEM":"UTC","ECCENTRICITY":"0.00012250","PERIAPSIS":"538.882","REF_FRAME":"TEME","MEAN_ELEMENT_THEORY":"SGP4","MEAN_ANOMALY":"282.4196","ARG_OF_PERICENTER":"77.6934","RA_OF_ASC_NODE":"254.9943","MEAN_MOTION_DDOT":"0.0000000000000","SEMIMAJOR_AXIS":"6917.865","EPHEMERIS_TYPE":"0","ELEMENT_SET_NO":"999","INCLINATION":"53.2160","TLE_LINE2":"2 53183  53.2160 254.9943 0001225  77.6934 282.4196 15.08845178 28112","PERIOD":"95.437","OBJECT_ID":"2022-083BD","MEAN_MOTION_DOT":"0.00003081","NORAD_CAT_ID":"53183","SITE":"AFETR","FILE":"3743722","DECAY_DATE":null,"MEAN_MOTION":"15.08845178","EPOCH":"2023-01-13T22:45:10.386432","OBJECT_TYPE":"PAYLOAD","TLE_LINE1":"1 53183U 22083BD  23013.94803688  .00003081  00000-0  21157-3 0  9991","REV_AT_EPOCH":"2811","OBJECT_NAME":"STARLINK-4268","CLASSIFICATION_TYPE":"U","GP_ID":"222976962","BSTAR":"0.00021157000000","APOAPSIS":"540.577","LAUNCH_DATE":"2022-07-17","COUNTRY_CODE":"US"},{"NORAD_CAT_ID":"53184","OBJECT_ID":"2022-083BE","TLE_LINE2":"2 53184  53.2135 249.5670 0002655  79.4497 280.6794 15.08884286 28201","PERIOD":"95.435","MEAN_MOTION_DOT":"-0.00001309","INCLINATION":"53.2135","OBJECT_TYPE":"PAYLOAD","MEAN_MOTION":"15.08884286","EPOCH":"2023-01-13T22:46:59.566656","DECAY_DATE":null,"FILE":"3743722","SITE":"AFETR","GP_ID":"222975282","BSTAR":"-0.00006402800000","CLASSIFICATION_TYPE":"U","OBJECT_NAME":"STARLINK-4257","REV_AT_EPOCH":"2820","TLE_LINE1":"1 53184U 22083BE  23013.94930054 -.00001309  00000-0 -64028-4 0  9998","LAUNCH_DATE":"2022-07-17","COUNTRY_CODE":"US","APOAPSIS":"541.447","CENTER_NAME":"EARTH","RCS_SIZE":"LARGE","ECCENTRICITY":"0.00026550","TIME_SYSTEM":"UTC","PERIAPSIS":"537.773","REF_FRAME":"TEME","MEAN_ELEMENT_THEORY":"SGP4","ELEMENT_SET_NO":"999","SEMIMAJOR_AXIS":"6917.745","MEAN_MOTION_DDOT":"0.0000000000000","EPHEMERIS_TYPE":"0","RA_OF_ASC_NODE":"249.5670","ARG_OF_PERICENTER":"79.4497","MEAN_ANOMALY":"280.6794"},{"APOAPSIS":"564.168","COUNTRY_CODE":"US","LAUNCH_DATE":"2022-07-22","TLE_LINE1":"1 53189U 22084A   23013.89455150 -.00002084  00000-0 -15774-3 0  9991","REV_AT_EPOCH":"2733","OBJECT_NAME":"STARLINK-4391","CLASSIFICATION_TYPE":"U","BSTAR":"-0.00015774000000","GP_ID":"222975524","SITE":"AFWTR","FILE":"3743722","DECAY_DATE":null,"EPOCH":"2023-01-13T21:28:09.249600","MEAN_MOTION":"15.01247098","OBJECT_TYPE":"PAYLOAD","INCLINATION":"97.6542","TLE_LINE2":"2 53189  97.6542  77.1712 0001609  49.9111 310.2254 15.01247098 27336","PERIOD":"95.920","OBJECT_ID":"2022-084A","MEAN_MOTION_DOT":"-0.00002084","NORAD_CAT_ID":"53189","ARG_OF_PERICENTER":"49.9111","MEAN_ANOMALY":"310.2254","RA_OF_ASC_NODE":"77.1712","EPHEMERIS_TYPE":"0","SEMIMAJOR_AXIS":"6941.187","MEAN_MOTION_DDOT":"0.0000000000000","ELEMENT_SET_NO":"999","MEAN_ELEMENT_THEORY":"SGP4","PERIAPSIS":"561.935","REF_FRAME":"TEME","TIME_SYSTEM":"UTC","ECCENTRICITY":"0.00016090","RCS_SIZE":"LARGE","CENTER_NAME":"EARTH"},{"RCS_SIZE":"LARGE","CENTER_NAME":"EARTH","TIME_SYSTEM":"UTC","ECCENTRICITY":"0.00017000","MEAN_ELEMENT_THEORY":"SGP4","PERIAPSIS":"561.818","REF_FRAME":"TEME","ARG_OF_PERICENTER":"44.3655","MEAN_ANOMALY":"315.7705","RA_OF_ASC_NODE":"77.1902","EPHEMERIS_TYPE":"0","MEAN_MOTION_DDOT":"0.0000000000000","SEMIMAJOR_AXIS":"6941.133","ELEMENT_SET_NO":"999","INCLINATION":"97.6621","MEAN_MOTION_DOT":"0.00005531","TLE_LINE2":"2 53190  97.6621  77.1902 0001700  44.3655 315.7705 15.01264570 27336","PERIOD":"95.919","OBJECT_ID":"2022-084B","NORAD_CAT_ID":"53190","SITE":"AFWTR","FILE":"3743722","DECAY_DATE":null,"EPOCH":"2023-01-13T22:11:10.488480","MEAN_MOTION":"15.01264570","OBJECT_TYPE":"PAYLOAD","TLE_LINE1":"1 53190U 22084B   23013.92442695  .00005531  00000-0  43479-3 0  9998","OBJECT_NAME":"STARLINK-4332","REV_AT_EPOCH":"2733","CLASSIFICATION_TYPE":"U","BSTAR":"0.00043479000000","GP_ID":"222976728","APOAPSIS":"564.178","COUNTRY_CODE":"US","LAUNCH_DATE":"2022-07-22"},{"ECCENTRICITY":"0.00013360","TIME_SYSTEM":"UTC","CENTER_NAME":"EARTH","RCS_SIZE":"LARGE","SEMIMAJOR_AXIS":"6941.154","MEAN_MOTION_DDOT":"0.0000000000000","EPHEMERIS_TYPE":"0","ELEMENT_SET_NO":"999","ARG_OF_PERICENTER":"76.0261","MEAN_ANOMALY":"284.1112","RA_OF_ASC_NODE":"77.1471","PERIAPSIS":"562.092","REF_FRAME":"TEME","MEAN_ELEMENT_THEORY":"SGP4","MEAN_MOTION":"15.01257676","EPOCH":"2023-01-13T21:20:10.006944","OBJECT_TYPE":"PAYLOAD","SITE":"AFWTR","FILE":"3743722","DECAY_DATE":null,"TLE_LINE2":"2 53191  97.6580  77.1471 0001336  76.0261 284.1112 15.01257676 26656","PERIOD":"95.920","OBJECT_ID":"2022-084C","MEAN_MOTION_DOT":"0.00008214","NORAD_CAT_ID":"53191","INCLINATION":"97.6580","LAUNCH_DATE":"2022-07-22","COUNTRY_CODE":"US","APOAPSIS":"563.946","GP_ID":"222976489","BSTAR":"0.00064340000000","TLE_LINE1":"1 53191U 22084C   23013.88900471  .00008214  00000-0  64340-3 0  9996","CLASSIFICATION_TYPE":"U","OBJECT_NAME":"STARLINK-4369","REV_AT_EPOCH":"2665"},{"OBJECT_ID":"2022-084D","TLE_LINE2":"2 53192  97.6544  77.1430 0000675  81.2412 278.8889 15.01265291 27321","PERIOD":"95.919","MEAN_MOTION_DOT":"0.00003023","NORAD_CAT_ID":"53192","INCLINATION":"97.6544","EPOCH":"2023-01-13T21:17:29.766912","MEAN_MOTION":"15.01265291","OBJECT_TYPE":"PAYLOAD","SITE":"AFWTR","DECAY_DATE":null,"FILE":"3743722","BSTAR":"0.00023981000000","GP_ID":"222975774","TLE_LINE1":"1 53192U 22084D   23013.88715008  .00003023  00000-0  23981-3 0  9996","OBJECT_NAME":"STARLINK-4375","REV_AT_EPOCH":"2732","CLASSIFICATION_TYPE":"U","COUNTRY_CODE":"US","LAUNCH_DATE":"2022-07-22","APOAPSIS":"563.464","CENTER_NAME":"EARTH","RCS_SIZE":"LARGE","ECCENTRICITY":"0.00006750","TIME_SYSTEM":"UTC","MEAN_ELEMENT_THEORY":"SGP4","REF_FRAME":"TEME","PERIAPSIS":"562.527","EPHEMERIS_TYPE":"0","MEAN_MOTION_DDOT":"0.0000000000000","SEMIMAJOR_AXIS":"6941.131","ELEMENT_SET_NO":"999","ARG_OF_PERICENTER":"81.2412","MEAN_ANOMALY":"278.8889","RA_OF_ASC_NODE":"77.1430"},{"CENTER_NAME":"EARTH","RCS_SIZE":"LARGE","ECCENTRICITY":"0.00017350","TIME_SYSTEM":"UTC","MEAN_ELEMENT_THEORY":"SGP4","PERIAPSIS":"561.827","REF_FRAME":"TEME","ELEMENT_SET_NO":"999","EPHEMERIS_TYPE":"0","SEMIMAJOR_AXIS":"6941.166","MEAN_MOTION_DDOT":"0.0000000000000","RA_OF_ASC_NODE":"77.1548","MEAN_ANOMALY":"278.4106","ARG_OF_PERICENTER":"81.7315","NORAD_CAT_ID":"53193","TLE_LINE2":"2 53193  97.6570  77.1548 0001735  81.7315 278.4106 15.01253802 27677","PERIOD":"95.920","MEAN_MOTION_DOT":"0.00000835","OBJECT_ID":"2022-084E","INCLINATION":"97.6570","OBJECT_TYPE":"PAYLOAD","EPOCH":"2023-01-13T21:25:29.708544","MEAN_MOTION":"15.01253802","FILE":"3743722","DECAY_DATE":null,"SITE":"AFWTR","BSTAR":"0.00006960000000","GP_ID":"222976015","CLASSIFICATION_TYPE":"U","OBJECT_NAME":"STARLINK-4351","REV_AT_EPOCH":"2767","TLE_LINE1":"1 53193U 22084E   23013.89270496  .00000835  00000-0  69600-4 0  9992","COUNTRY_CODE":"US","LAUNCH_DATE":"2022-07-22","APOAPSIS":"564.235"},{"APOAPSIS":"563.810","LAUNCH_DATE":"2022-07-22","COUNTRY_CODE":"US","TLE_LINE1":"1 53194U 22084F   23013.89085448  .00000930  00000-0  76954-4 0  9990","REV_AT_EPOCH":"2665","OBJECT_NAME":"STARLINK-4382","CLASSIFICATION_TYPE":"U","GP_ID":"222976254","BSTAR":"0.00007695400000","SITE":"AFWTR","FILE":"3743722","DECAY_DATE":null,"MEAN_MOTION":"15.01258506","EPOCH":"2023-01-13T21:22:49.827072","OBJECT_TYPE":"PAYLOAD","INCLINATION":"97.6574","PERIOD":"95.920","TLE_LINE2":"2 53194  97.6574  77.1510 0001143  63.4541 296.6801 15.01258506 26659","MEAN_MOTION_DOT":"0.00000930","OBJECT_ID":"2022-084F","NORAD_CAT_ID":"53194","MEAN_ANOMALY":"296.6801","ARG_OF_PERICENTER":"63.4541","RA_OF_ASC_NODE":"77.1510","SEMIMAJOR_AXIS":"6941.151","MEAN_MOTION_DDOT":"0.0000000000000","EPHEMERIS_TYPE":"0","ELEMENT_SET_NO":"999","REF_FRAME":"TEME","PERIAPSIS":"562.223","MEAN_ELEMENT_THEORY":"SGP4","TIME_SYSTEM":"UTC","ECCENTRICITY":"0.00011430","RCS_SIZE":"LARGE","CENTER_NAME":"EARTH"},{"TLE_LINE1":"1 53195U 22084G   23013.74467489  .00003368  00000-0  27244-3 0  9999","REV_AT_EPOCH":"2730","OBJECT_NAME":"STARLINK-4404","CLASSIFICATION_TYPE":"U","BSTAR":"0.00027244000000","GP_ID":"222976963","APOAPSIS":"566.053","COUNTRY_CODE":"US","LAUNCH_DATE":"2022-07-22","INCLINATION":"97.6570","TLE_LINE2":"2 53195  97.6570  77.0378 0000756 199.8369 160.2825 15.00444156 27300","OBJECT_ID":"2022-084G","PERIOD":"95.972","MEAN_MOTION_DOT":"0.00003368","NORAD_CAT_ID":"53195","SITE":"AFWTR","DECAY_DATE":null,"FILE":"3743722","EPOCH":"2023-01-13T17:52:19.910496","MEAN_MOTION":"15.00444156","OBJECT_TYPE":"PAYLOAD","MEAN_ELEMENT_THEORY":"SGP4","PERIAPSIS":"565.003","REF_FRAME":"TEME","MEAN_ANOMALY":"160.2825","ARG_OF_PERICENTER":"199.8369","RA_OF_ASC_NODE":"77.0378","EPHEMERIS_TYPE":"0","SEMIMAJOR_AXIS":"6943.663","MEAN_MOTION_DDOT":"0.0000000000000","ELEMENT_SET_NO":"999","RCS_SIZE":"LARGE","CENTER_NAME":"EARTH","TIME_SYSTEM":"UTC","ECCENTRICITY":"0.00007560"},{"NORAD_CAT_ID":"53196","MEAN_MOTION_DOT":"0.00001519","TLE_LINE2":"2 53196  97.6598  77.1454 0001043 109.4746 250.6591 15.01261209 27315","PERIOD":"95.919","OBJECT_ID":"2022-084H","INCLINATION":"97.6598","OBJECT_TYPE":"PAYLOAD","MEAN_MOTION":"15.01261209","EPOCH":"2023-01-13T21:17:51.082656","DECAY_DATE":null,"FILE":"3743722","SITE":"AFWTR","GP_ID":"222975283","BSTAR":"0.00012286000000","OBJECT_NAME":"STARLINK-4407","CLASSIFICATION_TYPE":"U","REV_AT_EPOCH":"2731","TLE_LINE1":"1 53196U 22084H   23013.88739679  .00001519  00000-0  12286-3 0  9994","LAUNCH_DATE":"2022-07-22","COUNTRY_CODE":"US","APOAPSIS":"563.732","CENTER_NAME":"EARTH","RCS_SIZE":"LARGE","ECCENTRICITY":"0.00010430","TIME_SYSTEM":"UTC","REF_FRAME":"TEME","PERIAPSIS":"562.284","MEAN_ELEMENT_THEORY":"SGP4","ELEMENT_SET_NO":"999","MEAN_MOTION_DDOT":"0.0000000000000","SEMIMAJOR_AXIS":"6941.143","EPHEMERIS_TYPE":"0","RA_OF_ASC_NODE":"77.1454","ARG_OF_PERICENTER":"109.4746","MEAN_ANOMALY":"250.6591"}];
